NORAD_CAT_ID,OBJECT_NAME,OBJECT_TYPE,EPOCH,MEAN_MOTION,ECCENTRICITY,INCLINATION,RA_OF_ASC_NODE,ARG_OF_PERICENTER,MEAN_ANOMALY,BSTAR,MEAN_MOTION_DOT,MEAN_MOTION_DDOT,TLE_LINE0,TLE_LINE1,TLE_LINE2,SEMIMAJOR_AXIS,PERIOD,APOGEE,PERIGEE,DECAYED
47762,STARLINK-2180,PAYLOAD,2021-09-26 10:23:56,15.06407899,8.03e-05,53.0571,322.6825,100.9066,259.2013,1.4802e-05,-6.1e-07,0.0,0 STARLINK-2180,1 47762U 21017AS  21269.43329820 -.00000061  00000-0  14802-4 0  9995,2 47762  53.0571 322.6825 0000803 100.9066 259.2013 15.06407899 31926,6925.324000000001,95.592,547.745,546.633,0.0
47762,STARLINK-2180,PAYLOAD,2021-09-27 10:17:02,15.06397964,8.3e-05,53.0572,318.2147,97.9462,262.1621,1.5609000000000006e-05,-4.9e-07,0.0,0 STARLINK-2180,1 47762U 21017AS  21270.42850421 -.00000049  00000-0  15609-4 0  9994,2 47762  53.0572 318.2147 0000830  97.9462 262.1621 15.06397964 32076,6925.355,95.592,547.795,546.645,0.0
47762,STARLINK-2180,PAYLOAD,2021-09-27 19:50:17,15.06395686,8.109999999999999e-05,53.0572,316.4278,96.0486,264.0596,-1.9362e-05,-5.700000000000001e-06,0.0,0 STARLINK-2180,1 47762U 21017AS  21270.82658797 -.00000570  00000-0 -19362-4 0  9990,2 47762  53.0572 316.4278 0000811  96.0486 264.0596 15.06395686 32785,6925.361999999999,95.592,547.788,546.665,0.0
47762,STARLINK-2180,PAYLOAD,2021-09-28 13:21:12,15.06401528,8.170000000000001e-05,53.0567,313.1517,92.6541,267.4542,5.4369e-06,-2e-06,0.0,0 STARLINK-2180,1 47762U 21017AS  21271.55639860 -.00000200  00000-0  54369-5 0  9997,2 47762  53.0567 313.1517 0000817  92.6541 267.4542 15.06401528 32892,6925.344,95.592,547.775,546.643,0.0
47762,STARLINK-2180,PAYLOAD,2021-09-28 18:07:49,15.06402552,8.159999999999999e-05,53.0567,312.2582,91.782,268.3262,1.4543e-05,-6.5e-07,0.0,0 STARLINK-2180,1 47762U 21017AS  21271.75543772 -.00000065  00000-0  14543-4 0  9993,2 47762  53.0567 312.2582 0000816  91.7820 268.3262 15.06402552 32272,6925.340999999999,95.592,547.771,546.641,0.0
47762,STARLINK-2180,PAYLOAD,2021-09-29 08:27:40,15.06399403,8.209999999999999e-05,53.0565,309.5777,90.145,269.9633,0.00010993,1.357e-05,0.0,0 STARLINK-2180,1 47762U 21017AS  21272.35255696  .00001357  00000-0  10993-3 0  9993,2 47762  53.0565 309.5777 0000821  90.1450 269.9633 15.06399403 33015,6925.35,95.592,547.784,546.6469999999998,0.0
47762,STARLINK-2180,PAYLOAD,2021-09-29 19:36:28,15.06389001,8.8e-05,53.0565,307.4929,87.7173,272.3917,3.0080000000000007e-06,-2.36e-06,0.0,0 STARLINK-2180,1 47762U 21017AS  21272.81699700 -.00000236  00000-0  30080-5 0  9999,2 47762  53.0565 307.4929 0000880  87.7173 272.3917 15.06389001 32431,6925.382,95.593,547.857,546.638,0.0
47762,STARLINK-2180,PAYLOAD,2021-09-30 09:56:19,15.06393713,8.83e-05,53.0563,304.8123,86.7085,273.4005,5.849500000000001e-06,-1.94e-06,0.0,0 STARLINK-2180,1 47762U 21017AS  21273.41411791 -.00000194  00000-0  58495-5 0  9991,2 47762  53.0563 304.8123 0000883  86.7085 273.4005 15.06393713 33177,6925.368,95.593,547.844,546.621,0.0
47762,STARLINK-2180,PAYLOAD,2021-10-01 01:51:43,15.06398191,8.9e-05,53.0563,301.8336,84.3606,275.7485,1.7097e-05,-2.7e-07,0.0,0 STARLINK-2180,1 47762U 21017AS  21274.07758393 -.00000027  00000-0  17097-4 0  9993,2 47762  53.0563 301.8336 0000890  84.3606 275.7485 15.06398191 32622,6925.354,95.592,547.835,546.6030000000002,0.0
47762,STARLINK-2180,PAYLOAD,2021-10-01 09:49:25,15.0637983,0.0001979,53.0564,300.3446,103.4441,256.6768,0.00031993,4.484e-05,0.0,0 STARLINK-2180,1 47762U 21017AS  21274.40932228  .00004484  00000-0  31993-3 0  9991,2 47762  53.0564 300.3446 0001979 103.4441 256.6768 15.06379830 33327,6925.41,95.593,548.646,545.905,0.0
47762,STARLINK-2180,PAYLOAD,2021-10-01 19:22:39,15.06397764,9.25e-05,53.0563,298.5575,83.5163,276.5931,0.00013331,1.705e-05,0.0,0 STARLINK-2180,1 47762U 21017AS  21274.80739635  .00001705  00000-0  13331-3 0  9991,2 47762  53.0563 298.5575 0000925  83.5163 276.5931 15.06397764 33381,6925.355,95.592,547.861,546.58,0.0
47762,STARLINK-2180,PAYLOAD,2021-10-02 01:44:48,15.06401593,9.17e-05,53.0564,297.366,82.8751,277.2342,0.00013157,1.679e-05,0.0,0 STARLINK-2180,1 47762U 21017AS  21275.07278131  .00001679  00000-0  13157-3 0  9996,2 47762  53.0564 297.3660 0000917  82.8751 277.2342 15.06401593 32772,6925.344,95.592,547.844,546.5740000000002,0.0
47762,STARLINK-2180,PAYLOAD,2021-10-02 04:55:53,15.06401505,9.18e-05,53.0564,296.7703,82.7162,277.3931,0.00012569,1.591e-05,0.0,0 STARLINK-2180,1 47762U 21017AS  21275.20547469  .00001591  00000-0  12569-3 0  9993,2 47762  53.0564 296.7703 0000918  82.7162 277.3931 15.06401505 33442,6925.344,95.592,547.845,546.573,0.0
47762,STARLINK-2180,PAYLOAD,2021-10-02 11:18:02,15.06405277,9.27e-05,53.0564,295.5792,79.4078,280.7015,0.00013906,1.791e-05,0.0,0 STARLINK-2180,1 47762U 21017AS  21275.47085906  .00001791  00000-0  13906-3 0  9993,2 47762  53.0564 295.5792 0000927  79.4078 280.7015 15.06405277 33481,6925.331999999999,95.592,547.839,546.555,0.0
47762,STARLINK-2180,PAYLOAD,2021-10-03 00:02:22,15.06394122,9.53e-05,53.0563,293.1964,80.5015,279.6082,-1.471e-05,-5e-06,0.0,0 STARLINK-2180,1 47762U 21017AS  21276.00164595 -.00000500  00000-0 -14710-4 0  9999,2 47762  53.0563 293.1964 0000953  80.5015 279.6082 15.06394122 32912,6925.3669999999975,95.593,547.8919999999998,546.572,0.0
47762,STARLINK-2180,PAYLOAD,2021-10-03 11:11:08,15.0639675,0.0001014,53.0563,291.1118,76.8093,283.3009,9.139e-06,-1.45e-06,0.0,0 STARLINK-2180,1 47762U 21017AS  21276.46607198 -.00000145  00000-0  91390-5 0  9994,2 47762  53.0563 291.1118 0001014  76.8093 283.3009 15.06396750 33634,6925.359,95.592,547.9259999999998,546.521,0.0
47762,STARLINK-2180,PAYLOAD,2021-10-03 17:33:17,15.06398046,9.86e-05,53.0562,289.9207,77.4712,282.6387,1.7515e-05,-2e-07,0.0,0 STARLINK-2180,1 47762U 21017AS  21276.73145813 -.00000020  00000-0  17515-4 0  9993,2 47762  53.0562 289.9207 0000986  77.4712 282.6387 15.06398046 33674,6925.355,95.592,547.9019999999998,546.5369999999998,0.0
47762,STARLINK-2180,PAYLOAD,2021-10-03 23:55:27,15.06401583,0.0001023,53.0562,288.7290000000001,76.0567,284.0536,7.4483e-06,-1.7e-06,0.0,0 STARLINK-2180,1 47762U 21017AS  21276.99684350 -.00000170  00000-0  74483-5 0  9999,2 47762  53.0562 288.7290 0001023  76.0567 284.0536 15.06401583 33065,6925.344,95.592,547.9169999999998,546.5,0.0
47762,STARLINK-2180,PAYLOAD,2021-10-04 07:53:09,15.06397709,0.0001025,53.0562,287.2395,75.3064,284.8039,-1.5631e-05,-5.14e-06,0.0,0 STARLINK-2180,1 47762U 21017AS  21277.32858054 -.00000514  00000-0 -15631-4 0  9993,2 47762  53.0562 287.2395 0001025  75.3064 284.8039 15.06397709 33768,6925.356,95.592,547.93,546.511,0.0
47762,STARLINK-2180,PAYLOAD,2021-10-04 17:26:24,15.06388898,0.0001018,53.056,285.4529,73.4763,286.6338,-0.00011759,-2.032e-05,0.0,0 STARLINK-2180,1 47762U 21017AS  21277.72667146 -.00002032  00000-0 -11759-3 0  9990,2 47762  53.0560 285.4529 0001018  73.4763 286.6338 15.06388898 33178,6925.3830000000025,95.593,547.953,546.543,0.0
47762,STARLINK-2180,PAYLOAD,2021-10-05 07:46:16,15.06385748,0.0001094,53.0558,282.7723,74.0604,286.0506,-9.7771e-06,-4.27e-06,0.0,0 STARLINK-2180,1 47762U 21017AS  21278.32379726 -.00000427  00000-0 -97771-5 0  9997,2 47762  53.0558 282.7723 0001094  74.0604 286.0506 15.06385748 33910,6925.392,95.593,548.015,546.5,0.0
47762,STARLINK-2180,PAYLOAD,2021-10-05 23:41:39,15.06388807,0.0001156,53.0553,279.7934,70.1726,289.9388,-1.3468e-05,-4.82e-06,0.0,0 STARLINK-2180,1 47762U 21017AS  21278.98726838 -.00000482  00000-0 -13468-4 0  9990,2 47762  53.0553 279.7934 0001156  70.1726 289.9388 15.06388807 33364,6925.3830000000025,95.593,548.048,546.447,0.0
47762,STARLINK-2180,PAYLOAD,2021-10-06 09:14:54,15.06387966,0.0001186,53.0556,278.0079,74.1069,286.005,3.4285e-05,2.29e-06,0.0,0 STARLINK-2180,1 47762U 21017AS  21279.38535081  .00000229  00000-0  34285-4 0  9990,2 47762  53.0556 278.0079 0001186  74.1069 286.0050 15.06387966 34074,6925.385,95.593,548.072,546.429,0.0
47762,STARLINK-2180,PAYLOAD,2021-10-06 17:12:36,15.06385621,0.0001243,53.056,276.5179,73.6315,286.481,0.00010373,1.263e-05,0.0,0 STARLINK-2180,1 47762U 21017AS  21279.71708696  .00001263  00000-0  10373-3 0  9991,2 47762  53.0560 276.5179 0001243  73.6315 286.4810 15.06385621 34125,6925.393,95.593,548.118,546.3969999999998,0.0
47762,STARLINK-2180,PAYLOAD,2021-10-07 09:07:59,15.06392636,0.0001274999999999,53.0559,273.5392,73.2538,286.8591,0.00011523,1.435e-05,0.0,0 STARLINK-2180,1 47762U 21017AS  21280.38055493  .00001435  00000-0  11523-3 0  9995,2 47762  53.0559 273.5392 0001275  73.2538 286.8591 15.06392636 34220,6925.371,95.593,548.119,546.3530000000002,0.0
47762,STARLINK-2180,PAYLOAD,2021-10-07 17:05:41,15.06395301,0.0001286999999999,53.0559,272.0502,72.6837,287.4293,0.00012238,1.542e-05,0.0,0 STARLINK-2180,1 47762U 21017AS  21280.71228826  .00001542  00000-0  12238-3 0  9997,2 47762  53.0559 272.0502 0001287  72.6837 287.4293 15.06395301 33626,6925.363,95.592,548.119,546.337,0.0
47762,STARLINK-2180,PAYLOAD,2021-10-08 09:01:05,15.06401453,0.0001296,53.0558,269.0715,73.4075,286.7056,0.00013293,1.699e-05,0.0,0 STARLINK-2180,1 47762U 21017AS  21281.37575330  .00001699  00000-0  13293-3 0  9990,2 47762  53.0558 269.0715 0001296  73.4075 286.7056 15.06401453 34378,6925.344,95.592,548.107,546.312,0.0
47762,STARLINK-2180,PAYLOAD,2021-10-09 02:32:01,15.06402407,0.0001305,53.0557,265.7949,74.88,285.2334,7.812800000000001e-05,8.83e-06,0.0,0 STARLINK-2180,1 47762U 21017AS  21282.10556754  .00000883  00000-0  78128-4 0  9994,2 47762  53.0557 265.7949 0001305  74.8800 285.2334 15.06402407 33834,6925.340999999999,95.592,548.11,546.302,0.0
47762,STARLINK-2180,PAYLOAD,2021-10-09 05:43:06,15.06396229,0.0001385,53.0558,265.2005,69.4277,290.686,1.8194e-05,-1e-07,0.0,0 STARLINK-2180,1 47762U 21017AS  21282.23826756 -.00000010  00000-0  18194-4 0  9990,2 47762  53.0558 265.2005 0001385  69.4277 290.6860 15.06396229 34502,6925.36,95.592,548.184,546.266,0.0
